"96034D" "Sol/Earth"
{
	Mesh "satellite.3ds"
	Radius 0.005

	EllipticalOrbit
	{
		Period          1.0209459
		SemiMajorAxis  42838.41661966654
		Eccentricity    0.0034692
		Inclination     3.3383
		AscendingNode   81.8582
		ArgOfPericenter 224.9013
		MeanAnomaly     134.3689
		Epoch           2452340.12540512
	}
        Albedo              10
}

"96035A" "Sol/Earth"
{
	Mesh "satellite.3ds"
	Radius 0.005

	EllipticalOrbit
	{
		Period          0.9972915
		SemiMajorAxis  42174.14970217783
		Eccentricity    2.321E-4
		Inclination     0.0168
		AscendingNode   59.4522
		ArgOfPericenter 18.7127
		MeanAnomaly     272.3062
		Epoch           2452345.88442455
	}
        Albedo              10
}

"96039A" "Sol/Earth"
{
	Mesh "satellite.3ds"
	Radius 0.005

	EllipticalOrbit
	{
		Period          0.99730814
		SemiMajorAxis  42174.618532893284
		Eccentricity    1.2E-4
		Inclination     0.0074
		AscendingNode   25.0857
		ArgOfPericenter 30.4055
		MeanAnomaly     145.0014
		Epoch           2452347.93619016
	}
        Albedo              10
}

"96040A" "Sol/Earth"
{
	Mesh "satellite.3ds"
	Radius 0.005

	EllipticalOrbit
	{
		Period          0.9972697
		SemiMajorAxis  42173.5346729867
		Eccentricity    6.335E-4
		Inclination     0.0304
		AscendingNode   63.0802
		ArgOfPericenter 44.9264
		MeanAnomaly     119.9516
		Epoch           2452344.32288409
	}
        Albedo              10
}

"96040B" "Sol/Earth"
{
	Mesh "satellite.3ds"
	Radius 0.005

	EllipticalOrbit
	{
		Period          0.99725336
		SemiMajorAxis  42173.074238361805
		Eccentricity    4.276E-4
		Inclination     0.0307
		AscendingNode   271.0165
		ArgOfPericenter 86.6647
		MeanAnomaly     259.6337
		Epoch           2452333.38924191
	}
        Albedo              10
}

"96044A" "Sol/Earth"
{
	Mesh "satellite.3ds"
	Radius 0.005

	EllipticalOrbit
	{
		Period          0.9973545
		SemiMajorAxis  42175.92586786226
		Eccentricity    2.878E-4
		Inclination     0.2322
		AscendingNode   92.4615
		ArgOfPericenter 53.5258
		MeanAnomaly     79.7256
		Epoch           2452346.33737035
	}
        Albedo              10
}

"96044B" "Sol/Earth"
{
	Mesh "satellite.3ds"
	Radius 0.005

	EllipticalOrbit
	{
		Period          0.9972984
		SemiMajorAxis  42174.34462852655
		Eccentricity    4.627E-4
		Inclination     0.0189
		AscendingNode   39.1373
		ArgOfPericenter 26.4441
		MeanAnomaly     230.5091
		Epoch           2452345.60238825
	}
        Albedo              10
}

"96053A" "Sol/Earth"
{
	Mesh "satellite.3ds"
	Radius 0.005

	EllipticalOrbit
	{
		Period          0.99729544
		SemiMajorAxis  42174.260608603894
		Eccentricity    4.58E-4
		Inclination     0.0503
		AscendingNode   355.1465
		ArgOfPericenter 71.3764
		MeanAnomaly     256.1625
		Epoch           2452346.69431582
	}
        Albedo              10
}

"96055A" "Sol/Earth"
{
	Mesh "satellite.3ds"
	Radius 0.005

	EllipticalOrbit
	{
		Period          0.9971365
		SemiMajorAxis  42169.778864629305
		Eccentricity    2.679E-4
		Inclination     0.0453
		AscendingNode   78.2075
		ArgOfPericenter 295.7221
		MeanAnomaly     201.2764
		Epoch           2452345.76606152
	}
        Albedo              10
}

"96054A" "Sol/Earth"
{
	Mesh "satellite.3ds"
	Radius 0.005

	EllipticalOrbit
	{
		Period          0.997294
		SemiMajorAxis  42174.220279011286
		Eccentricity    2.645E-4
		Inclination     0.0108
		AscendingNode   197.0419
		ArgOfPericenter 232.4631
		MeanAnomaly     297.4518
		Epoch           2452347.05943631
	}
        Albedo              10
}

"96058A" "Sol/Earth"
{
	Mesh "satellite.3ds"
	Radius 0.005

	EllipticalOrbit
	{
		Period          0.9974946
		SemiMajorAxis  42179.874635808555
		Eccentricity    2.862E-4
		Inclination     3.4936
		AscendingNode   83.2038
		ArgOfPericenter 18.0363
		MeanAnomaly     3.3443
		Epoch           2452345.76493808
	}
        Albedo              10
}

"96058D" "Sol/Earth"
{
	Mesh "satellite.3ds"
	Radius 0.005

	EllipticalOrbit
	{
		Period          0.99689925
		SemiMajorAxis  42163.090254839495
		Eccentricity    0.0011173
		Inclination     4.2205
		AscendingNode   77.3505
		ArgOfPericenter 245.6374
		MeanAnomaly     113.9588
		Epoch           2452346.85901077
	}
        Albedo              10
}

"96063A" "Sol/Earth"
{
	Mesh "satellite.3ds"
	Radius 0.005

	EllipticalOrbit
	{
		Period          0.997248
		SemiMajorAxis  42172.92300016291
		Eccentricity    2.012E-4
		Inclination     0.0418
		AscendingNode   262.8986
		ArgOfPericenter 192.2595
		MeanAnomaly     253.7214
		Epoch           2452343.64757524
	}
        Albedo              10
}

"96063B" "Sol/Earth"
{
	Mesh "satellite.3ds"
	Radius 0.005

	EllipticalOrbit
	{
		Period          0.9973111
		SemiMajorAxis  42174.70255245942
		Eccentricity    1.169E-4
		Inclination     0.0191
		AscendingNode   54.1976
		ArgOfPericenter 282.7378
		MeanAnomaly     217.2209
		Epoch           2452342.89351171
	}
        Albedo              10
}

"96067A" "Sol/Earth"
{
	Mesh "satellite.3ds"
	Radius 0.005

	EllipticalOrbit
	{
		Period          0.9972645
		SemiMajorAxis  42173.38847686354
		Eccentricity    6.678E-4
		Inclination     0.086
		AscendingNode   132.8447
		ArgOfPericenter 196.2043
		MeanAnomaly     272.0949
		Epoch           2452325.44647909
	}
        Albedo              10
}

"96070A" "Sol/Earth"
{
	Mesh "satellite.3ds"
	Radius 0.005

	EllipticalOrbit
	{
		Period          0.9972759
		SemiMajorAxis  42173.70943583591
		Eccentricity    3.749E-4
		Inclination     0.0307
		AscendingNode   0.3393
		ArgOfPericenter 76.9401
		MeanAnomaly     179.5729
		Epoch           2452346.97297377
	}
        Albedo              10
}

"97002A" "Sol/Earth"
{
	Mesh "satellite.3ds"
	Radius 0.005

	EllipticalOrbit
	{
		Period          0.9973008
		SemiMajorAxis  42174.41184440443
		Eccentricity    3.205E-4
		Inclination     0.0017
		AscendingNode   281.2545
		ArgOfPericenter 155.0313
		MeanAnomaly     259.0182
		Epoch           2452345.92424369
	}
        Albedo              10
}

"97002B" "Sol/Earth"
{
	Mesh "satellite.3ds"
	Radius 0.005

	EllipticalOrbit
	{
		Period          0.99730265
		SemiMajorAxis  42174.46393667293
		Eccentricity    4.693E-4
		Inclination     0.026
		AscendingNode   88.3112
		ArgOfPericenter 359.9146
		MeanAnomaly     205.8774
		Epoch           2452344.77659662
	}
        Albedo              10
}

"97007A" "Sol/Earth"
{
	Mesh "satellite.3ds"
	Radius 0.005

	EllipticalOrbit
	{
		Period          0.997366
		SemiMajorAxis  42176.25017789913
		Eccentricity    1.589E-4
		Inclination     0.07
		AscendingNode   104.1678
		ArgOfPericenter 334.8166
		MeanAnomaly     154.0274
		Epoch           2452345.05439264
	}
        Albedo              10
}

"97009A" "Sol/Earth"
{
	Mesh "satellite.3ds"
	Radius 0.005

	EllipticalOrbit
	{
		Period          0.99730873
		SemiMajorAxis  42174.63533681321
		Eccentricity    0.0012725
		Inclination     0.0906
		AscendingNode   102.4397
		ArgOfPericenter 289.1813
		MeanAnomaly     279.0295
		Epoch           2452345.70775235
	}
        Albedo              10
}

"97011A" "Sol/Earth"
{
	Mesh "satellite.3ds"
	Radius 0.005

	EllipticalOrbit
	{
		Period          0.9972888
		SemiMajorAxis  42174.07408407645
		Eccentricity    1.721E-4
		Inclination     0.0419
		AscendingNode   228.2985
		ArgOfPericenter 230.571
		MeanAnomaly     200.6182
		Epoch           2452346.91630594
	}
        Albedo              10
}

"97016A" "Sol/Earth"
{
	Mesh "satellite.3ds"
	Radius 0.005

	EllipticalOrbit
	{
		Period          0.99731916
		SemiMajorAxis  42174.929404869945
		Eccentricity    8.264E-4
		Inclination     0.0467
		AscendingNode   235.8834
		ArgOfPericenter 227.3673
		MeanAnomaly     131.3997
		Epoch           2452345.19289155
	}
        Albedo              10
}

"97016B" "Sol/Earth"
{
	Mesh "satellite.3ds"
	Radius 0.005

	EllipticalOrbit
	{
		Period          0.997282
		SemiMajorAxis  42173.882517916216
		Eccentricity    2.587E-4
		Inclination     0.0312
		AscendingNode   239.706
		ArgOfPericenter 248.0537
		MeanAnomaly     111.586
		Epoch           2452346.11691975
	}
        Albedo              10
}

"97019A" "Sol/Earth"
{
	Mesh "satellite.3ds"
	Radius 0.005

	EllipticalOrbit
	{
		Period          0.9972146
		SemiMajorAxis  42171.98195638761
		Eccentricity    5.323E-4
		Inclination     0.4439
		AscendingNode   98.7098
		ArgOfPericenter 3.8577
		MeanAnomaly     303.3531
		Epoch           2452346.25924479
	}
        Albedo              10
}

"97021A" "Sol/Earth"
{
	Mesh "satellite.3ds"
	Radius 0.005

	EllipticalOrbit
	{
		Period          0.9973181
		SemiMajorAxis  42174.89915791713
		Eccentricity    4.685E-4
		Inclination     0.0549
		AscendingNode   261.2902
		ArgOfPericenter 219.4188
		MeanAnomaly     143.5265
		Epoch           2452347.14053414
	}
        Albedo              10
}

"97025A" "Sol/Earth"
{
	Mesh "satellite.3ds"
	Radius 0.005

	EllipticalOrbit
	{
		Period          0.99728906
		SemiMajorAxis  42174.08080568821
		Eccentricity    1.08E-4
		Inclination     0.071
		AscendingNode   130.7645
		ArgOfPericenter 292.867
		MeanAnomaly     231.9965
		Epoch           2452344.58398492
	}
        Albedo              10
}

"Telstar 5" "Sol/Earth"
{
	Mesh "satellite.3ds"
	Radius 0.005

	EllipticalOrbit
	{
		Period          0.9973014
		SemiMajorAxis  42174.42864836552
		Eccentricity    1.544E-4
		Inclination     0.0215
		AscendingNode   14.1773
		ArgOfPericenter 46.4343
		MeanAnomaly     253.228
		Epoch           2452346.89561119
	}
        Albedo              10
}

"97027A" "Sol/Earth"
{
	Mesh "satellite.3ds"
	Radius 0.005

	EllipticalOrbit
	{
		Period          0.997276
		SemiMajorAxis  42173.712796656386
		Eccentricity    3.73E-4
		Inclination     0.062
		AscendingNode   314.7177
		ArgOfPericenter 146.1905
		MeanAnomaly     208.0317
		Epoch           2452344.76838899
	}
        Albedo              10
}

